{
  "type": "FeatureCollection",
  "features": [
    {
      "type": "Feature",
      "properties": {
        "norad_id": 34833,
        "name": "IRIDIUM 33 DEB",
        "group": "iridium-33-debris",
        "lat": 43.810720675537816,
        "lon": -138.99147654108518,
        "alt_km": 712.4334192208389,
        "timestamp": "2025-12-27T20:30:59.665641+00:00",
        "meta_object_name": "IRIDIUM 33 DEB",
        "meta_object_id": "1997-051MH",
        "meta_epoch": "2025-12-27T03:36:29.185920",
        "meta_mean_motion": 14.52459738,
        "meta_eccentricity": 0.00210883,
        "meta_inclination": 86.3923,
        "meta_ra_of_asc_node": 44.7821,
        "meta_arg_of_pericenter": 54.3467,
        "meta_mean_anomaly": 359.944,
        "meta_ephemeris_type": 0,
        "meta_classification_type": "U",
        "meta_norad_cat_id": 34833,
        "meta_element_set_no": 999,
        "meta_rev_at_epoch": 87924,
        "meta_bstar": 0.00081313888,
        "meta_mean_motion_dot": 3.345e-05,
        "meta_mean_motion_ddot": 0,
        "tle_line1": "1 34833U 97051MH  25361.15033780  .00003345  00000+0  81314-3 0  9991",
        "tle_line2": "2 34833  86.3923  44.7821 0021088  54.3467 359.9440 14.52459738879240"
      },
      "geometry": {
        "type": "Point",
        "coordinates": [
          -138.99147654108518,
          43.810720675537816
        ]
      }
    },
    {
      "type": "Feature",
      "properties": {
        "norad_id": 34870,
        "name": "IRIDIUM 33 DEB",
        "group": "iridium-33-debris",
        "lat": -20.01195084789138,
        "lon": -54.18617496741644,
        "alt_km": 656.1953348769357,
        "timestamp": "2025-12-27T20:30:59.665651+00:00",
        "meta_object_name": "IRIDIUM 33 DEB",
        "meta_object_id": "1997-051MQ",
        "meta_epoch": "2025-12-27T02:46:31.066176",
        "meta_mean_motion": 14.76712058,
        "meta_eccentricity": 0.00184241,
        "meta_inclination": 86.3107,
        "meta_ra_of_asc_node": 307.499,
        "meta_arg_of_pericenter": 132.9493,
        "meta_mean_anomaly": 239.9601,
        "meta_ephemeris_type": 0,
        "meta_classification_type": "U",
        "meta_norad_cat_id": 34870,
        "meta_element_set_no": 999,
        "meta_rev_at_epoch": 89123,
        "meta_bstar": 0.0017741165,
        "meta_mean_motion_dot": 0.00012485,
        "meta_mean_motion_ddot": 0,
        "tle_line1": "1 34870U 97051MQ  25361.11563734  .00012485  00000+0  17741-2 0  9992",
        "tle_line2": "2 34870  86.3107 307.4990 0018424 132.9493 239.9601 14.76712058891235"
      },
      "geometry": {
        "type": "Point",
        "coordinates": [
          -54.18617496741644,
          -20.01195084789138
        ]
      }
    },
    {
      "type": "Feature",
      "properties": {
        "norad_id": 34896,
        "name": "IRIDIUM 33 DEB",
        "group": "iridium-33-debris",
        "lat": -14.41539349205835,
        "lon": -41.03932878288387,
        "alt_km": 695.3654038002387,
        "timestamp": "2025-12-27T20:30:59.665662+00:00",
        "meta_object_name": "IRIDIUM 33 DEB",
        "meta_object_id": "1997-051MY",
        "meta_epoch": "2025-12-24T04:12:44.288640",
        "meta_mean_motion": 14.66381715,
        "meta_eccentricity": 0.00257287,
        "meta_inclination": 86.3299,
        "meta_ra_of_asc_node": 321.5555,
        "meta_arg_of_pericenter": 173.6101,
        "meta_mean_anomaly": 201.3064,
        "meta_ephemeris_type": 0,
        "meta_classification_type": "U",
        "meta_norad_cat_id": 34896,
        "meta_element_set_no": 999,
        "meta_rev_at_epoch": 87787,
        "meta_bstar": 0.00093038371,
        "meta_mean_motion_dot": 5.188e-05,
        "meta_mean_motion_ddot": 0,
        "tle_line1": "1 34896U 97051MY  25358.17551260  .00005188  00000+0  93038-3 0  9999",
        "tle_line2": "2 34896  86.3299 321.5555 0025728 173.6101 201.3064 14.66381715877873"
      },
      "geometry": {
        "type": "Point",
        "coordinates": [
          -41.03932878288387,
          -14.41539349205835
        ]
      }
    },
    {
      "type": "Feature",
      "properties": {
        "norad_id": 34926,
        "name": "IRIDIUM 33 DEB",
        "group": "iridium-33-debris",
        "lat": 18.220628808743275,
        "lon": 179.98349096871968,
        "alt_km": 698.6247163385005,
        "timestamp": "2025-12-27T20:30:59.665672+00:00",
        "meta_object_name": "IRIDIUM 33 DEB",
        "meta_object_id": "1997-051NF",
        "meta_epoch": "2025-12-27T12:06:07.885152",
        "meta_mean_motion": 14.55106374,
        "meta_eccentricity": 0.0074142,
        "meta_inclination": 86.1316,
        "meta_ra_of_asc_node": 1.4225,
        "meta_arg_of_pericenter": 241.393,
        "meta_mean_anomaly": 245.6587,
        "meta_ephemeris_type": 0,
        "meta_classification_type": "U",
        "meta_norad_cat_id": 34926,
        "meta_element_set_no": 999,
        "meta_rev_at_epoch": 86671,
        "meta_bstar": 0.0059184,
        "meta_mean_motion_dot": 0.00026593,
        "meta_mean_motion_ddot": 0,
        "tle_line1": "1 34926U 97051NF  25361.50425793  .00026593  00000+0  59184-2 0  9991",
        "tle_line2": "2 34926  86.1316   1.4225 0074142 241.3930 245.6587 14.55106374866716"
      },
      "geometry": {
        "type": "Point",
        "coordinates": [
          179.98349096871968,
          18.220628808743275
        ]
      }
    },
    {
      "type": "Feature",
      "properties": {
        "norad_id": 34985,
        "name": "IRIDIUM 33 DEB",
        "group": "iridium-33-debris",
        "lat": -43.29361382629574,
        "lon": 47.000029400749426,
        "alt_km": 771.677838956728,
        "timestamp": "2025-12-27T20:30:59.665683+00:00",
        "meta_object_name": "IRIDIUM 33 DEB",
        "meta_object_id": "1997-051NR",
        "meta_epoch": "2025-12-26T21:58:10.172064",
        "meta_mean_motion": 14.42068347,
        "meta_eccentricity": 0.0022221,
        "meta_inclination": 86.3683,
        "meta_ra_of_asc_node": 50.8313,
        "meta_arg_of_pericenter": 172.8188,
        "meta_mean_anomaly": 309.665,
        "meta_ephemeris_type": 0,
        "meta_classification_type": "U",
        "meta_norad_cat_id": 34985,
        "meta_element_set_no": 999,
        "meta_rev_at_epoch": 87379,
        "meta_bstar": 0.00068645,
        "meta_mean_motion_dot": 2.28e-05,
        "meta_mean_motion_ddot": 0,
        "tle_line1": "1 34985U 97051NR  25360.91539551  .00002280  00000+0  68645-3 0  9998",
        "tle_line2": "2 34985  86.3683  50.8313 0022221 172.8188 309.6650 14.42068347873791"
      },
      "geometry": {
        "type": "Point",
        "coordinates": [
          47.000029400749426,
          -43.29361382629574
        ]
      }
    },
    {
      "type": "Feature",
      "properties": {
        "norad_id": 35051,
        "name": "IRIDIUM 33 DEB",
        "group": "iridium-33-debris",
        "lat": -13.167099962671628,
        "lon": -176.86385519274907,
        "alt_km": 744.0321672079044,
        "timestamp": "2025-12-27T20:30:59.665693+00:00",
        "meta_object_name": "IRIDIUM 33 DEB",
        "meta_object_id": "1997-051NX",
        "meta_epoch": "2025-12-22T18:31:37.744896",
        "meta_mean_motion": 14.47639956,
        "meta_eccentricity": 0.0010302,
        "meta_inclination": 86.324,
        "meta_ra_of_asc_node": 4.4893,
        "meta_arg_of_pericenter": 63.2582,
        "meta_mean_anomaly": 296.9674,
        "meta_ephemeris_type": 0,
        "meta_classification_type": "U",
        "meta_norad_cat_id": 35051,
        "meta_element_set_no": 999,
        "meta_rev_at_epoch": 87141,
        "meta_bstar": 0.00060447572,
        "meta_mean_motion_dot": 2.248e-05,
        "meta_mean_motion_ddot": 0,
        "tle_line1": "1 35051U 97051NX  25356.77196464  .00002248  00000+0  60448-3 0  9991",
        "tle_line2": "2 35051  86.3240   4.4893 0010302  63.2582 296.9674 14.47639956871417"
      },
      "geometry": {
        "type": "Point",
        "coordinates": [
          -176.86385519274907,
          -13.167099962671628
        ]
      }
    },
    {
      "type": "Feature",
      "properties": {
        "norad_id": 35052,
        "name": "IRIDIUM 33 DEB",
        "group": "iridium-33-debris",
        "lat": -26.219141156777695,
        "lon": -164.19362367762554,
        "alt_km": 778.1409371668897,
        "timestamp": "2025-12-27T20:30:59.665703+00:00",
        "meta_object_name": "IRIDIUM 33 DEB",
        "meta_object_id": "1997-051NY",
        "meta_epoch": "2025-12-26T00:09:21.492000",
        "meta_mean_motion": 14.38507246,
        "meta_eccentricity": 0.00130035,
        "meta_inclination": 86.3301,
        "meta_ra_of_asc_node": 14.7874,
        "meta_arg_of_pericenter": 47.6773,
        "meta_mean_anomaly": 312.5525,
        "meta_ephemeris_type": 0,
        "meta_classification_type": "U",
        "meta_norad_cat_id": 35052,
        "meta_element_set_no": 999,
        "meta_rev_at_epoch": 87466,
        "meta_bstar": 0.00018800221,
        "meta_mean_motion_dot": 5.94e-06,
        "meta_mean_motion_ddot": 0,
        "tle_line1": "1 35052U 97051NY  25360.00649875  .00000594  00000+0  18800-3 0  9999",
        "tle_line2": "2 35052  86.3301  14.7874 0013003  47.6773 312.5525 14.38507246874664"
      },
      "geometry": {
        "type": "Point",
        "coordinates": [
          -164.19362367762554,
          -26.219141156777695
        ]
      }
    }
  ]
}